"Skathi:Saturn XXVII:2000 S 8" "Sol/Saturn"
{
	Class "minormoon"
	Texture	 	"asteroid.jpg"
	Mesh		"asteroid.cms"
	Radius		3.2

	EllipticalOrbit
	{
	Period		728.93
	SemiMajorAxis	15647000
	Eccentricity	0.2697
	Inclination	148.361	#
	AscendingNode	67.100	#
	ArgOfPericenter	148.021	# J2000.0
	MeanAnomaly     117.271	#
	}

	RotationPeriod  10   # Guess

	Albedo 0.06
}

"Mundilfari:Saturn XXV:2000 S 9" "Sol/Saturn"
{
	Class "minormoon"
	Texture	 	"asteroid.jpg"
	Mesh		"asteroid.cms"
	Radius		2.8

	EllipticalOrbit
	{
	Period		951.38
	SemiMajorAxis	18709000
	Eccentricity	0.2078
	Inclination	150.253	#
	AscendingNode	338.432	#
	ArgOfPericenter	16.508	# J2000.0
	MeanAnomaly     97.432	#
	}

	RotationPeriod  10   # Guess

	Albedo 0.06
}

"Erriapus:Saturn XXVIII:2000 S 10" "Sol/Saturn" # (previously Erriapo)
{
	Class "minormoon"
	Texture	 	"asteroid.jpg"
	Mesh		"asteroid.cms"
	Radius		4.3

	EllipticalOrbit
	{
	Period		871.92
	SemiMajorAxis	17616000
	Eccentricity	0.4740
	Inclination	13.545	#
	AscendingNode	286.903	#
	ArgOfPericenter	332.997	# J2000.0
	MeanAnomaly     306.656	#
	}

	RotationPeriod  10   # Guess

	Albedo 0.06
}

"Albiorix:Saturn XXVI:2000 S 11" "Sol/Saturn"
{
	Class "minormoon"
	Texture	 	"asteroid.jpg"
	Mesh		"asteroid.cms"
	Radius		13

	EllipticalOrbit
	{
	Period		783.45
	SemiMajorAxis	16404000
	Eccentricity	0.4778
	Inclination	31.518	#
	AscendingNode	259.354	#
	ArgOfPericenter	112.808	# J2000.0
	MeanAnomaly     17.224	#
	}

	RotationPeriod  10   # Guess

	Albedo 0.06
}

"Suttungr:Saturn XXIII:2000 S 12" "Sol/Saturn"
{
	Class "minormoon"
	Texture	 	"asteroid.jpg"
	Mesh		"asteroid.cms"
	Radius		2.8

	EllipticalOrbit
	{
	Period		1016.31
	SemiMajorAxis	19463000
	Eccentricity	0.1138
	Inclination	150.914	#
	AscendingNode	10.905	#
	ArgOfPericenter	350.499	# J2000.0
	MeanAnomaly     317.642	#
	}

	RotationPeriod  10   # Guess

	Albedo 0.06
}

"Narvi:Saturn XXXI:2003 S 1" "Sol/Saturn"
{
	Class "minormoon"
	Texture	 	"asteroid.jpg"
	Mesh		"asteroid.cms"
	Radius		3.3

	EllipticalOrbit
	{
	Epoch		2452629.5	# 2002 Dec 21
	Period		956.19		# mean
	SemiMajorAxis	18719000	# mean
	Eccentricity	0.3522		# mean
	Inclination	106.989
	AscendingNode	9.524
	ArgOfPericenter	172.396
	MeanAnomaly     139.109
	}

	RotationPeriod  10   # Guess

	Albedo 0.06
}

"Methone:Saturn XXXII:2004 S 1" "Sol/Saturn"
{
	Class "minormoon"
	Texture	 	"asteroid.jpg"
	Mesh		"asteroid.cms"
	Radius		1.6

	EllipticalOrbit
	{
	Epoch		 2453177.5 # 2004 Jun 21 00:00UT
	Period		 1.00971
	SemiMajorAxis	 194251
	Eccentricity	 0.001
	Inclination	 0.018
	AscendingNode	 311.0
	LongOfPericenter 308.0
	MeanLongitude    154.79
	}

	RotationEpoch	 2453177.5 # 2004 Jun 21 00:00UT
	RotationOffset	 335
}

"Pallene:Saturn XXXIII:2004 S 2" "Sol/Saturn"
{
	Class "minormoon"
	Texture	 	"asteroid.jpg"
	Mesh		"asteroid.cms"
	Radius		2.2

	EllipticalOrbit
	{
	Epoch		 2453177.5 # 2004 Jun 21 00:00UT
	Period		 1.15374
	SemiMajorAxis 	 212283
	Eccentricity	 0.004
	Inclination	 0.181
	AscendingNode	 327.0
	LongOfPericenter 38
	MeanLongitude    85.51
	}

	RotationEpoch	 2453177.5 # 2004 Jun 21 00:00UT
	RotationOffset   266
}

"Polydeuces:Saturn XXXIV:2004 S 5" "Sol/Saturn"
# Trailing Lagrange point of Dione
{
	Class "minormoon"
	Texture	 	"asteroid.jpg"
	Mesh		"asteroid.cms"
	Radius		1.75

	EllipticalOrbit
	{
	Epoch		 2453006.5 # 2004 Jan 2 00:00UT
	Period		 2.73690
	SemiMajorAxis 	 377390
	Eccentricity	 0.0182
	Inclination	 0.1705
	AscendingNode	 262
	LongOfPericenter 103.22
	MeanLongitude    67.61
	}

	RotationEpoch	 2453006.5 # 2004 Jan 2 00:00UT
	RotationOffset   248
}

"2004 S 7" "Sol/Saturn"
{
	Class "minormoon"
	Texture	 	"asteroid.jpg"
	Mesh		"asteroid.cms"
	Radius		3

	EllipticalOrbit
	{
	Epoch		2453400.5	# 2005 Jan 30
	Period		1101.99
	SemiMajorAxis	20576693
	Eccentricity	0.5541269
	Inclination	150.244
	AscendingNode	29.863
	ArgOfPericenter	100.469
	MeanAnomaly     292.198
	}

	RotationPeriod  10   # Guess

	Albedo 0.06
}

"Fornjot:Saturn XLII:2004 S 8" "Sol/Saturn" # MPEC 2006-C74
{
	Class "minormoon"
	Texture	 	"asteroid.jpg"
	Mesh		"asteroid.cms"
	Radius		3

	EllipticalOrbit
	{
	Epoch		2453800.5	# 2006 Mar 6
	Period		1430.37
	SemiMajorAxis	24484380
	Eccentricity	0.1663457
	Inclination	171.801
	AscendingNode	 71.103
	ArgOfPericenter	331.856
	MeanAnomaly      40.554              
	}

	RotationPeriod  10   # Guess

	Albedo 0.06
}

"Farbauti:Saturn XL:2004 S 9" "Sol/Saturn" # MPEC 2006-C72
{
	Class "minormoon"
	Texture	 	"asteroid.jpg"
	Mesh		"asteroid.cms"
	Radius		2.5

	EllipticalOrbit
	{
	Epoch		2453800.5	# 2006 Mar 6
	Period		1054.78
	SemiMajorAxis	19984780
	Eccentricity	0.1747573
	Inclination	152.085
	AscendingNode	332.181
	ArgOfPericenter	351.158
	MeanAnomaly     310.328
	}

	RotationPeriod  10   # Guess

	Albedo 0.06
}

"Aegir:Saturn XXXVI:2004 S 10" "Sol/Saturn" # MPEC 2006-C55
{
	Class "minormoon"
	Texture	 	"asteroid.jpg"
	Mesh		"asteroid.cms"
	Radius		3

	EllipticalOrbit
	{
	Epoch		2453800.5	# 2006 Mar 6
	Period		1093.12
	SemiMajorAxis	20466110
	Eccentricity	0.2255397
	Inclination	163.662
	AscendingNode	  4.888
	ArgOfPericenter	264.241
	MeanAnomaly      25.842
	}

	RotationPeriod  10   # Guess

	Albedo 0.06
}

"Bebhionn:Saturn XXXVII:2004 S 11" "Sol/Saturn" # MPEC 2006-C55
{
	Class "minormoon"
	Texture	 	"asteroid.jpg"
	Mesh		"asteroid.cms"
	Radius		3

	EllipticalOrbit
	{
	Epoch		2453800.5	# 2006 Mar 6
	Period		838.77
	SemiMajorAxis	17153520
	Eccentricity	0.3189491
	Inclination	 37.707
	AscendingNode	 28.249
	ArgOfPericenter	 10.424     
	MeanAnomaly      59.188              
	}

	RotationPeriod  10   # Guess

	Albedo 0.06
}

"2004 S 12" "Sol/Saturn"
{
	Class "minormoon"
	Texture	 	"asteroid.jpg"
	Mesh		"asteroid.cms"
	Radius		2.5

	EllipticalOrbit
	{
	Epoch		2453400.5	# 2005 Jan 30
	Period		1048.54
	SemiMajorAxis	19905866
	Eccentricity	0.3962529
	Inclination	163.328
	AscendingNode	30.672
	ArgOfPericenter	96.528
	MeanAnomaly     286.163
	}

	RotationPeriod  10   # Guess

	Albedo 0.06
}

"2004 S 13" "Sol/Saturn"
{
	Class "minormoon"
	Texture	 	"asteroid.jpg"
	Mesh		"asteroid.cms"
	Radius		3

	EllipticalOrbit
	{
	Epoch		2453400.5	# 2005 Jan 30
	Period		905.85
	SemiMajorAxis	18056253
	Eccentricity	0.2610261
	Inclination	145.257
	AscendingNode	339.270
	ArgOfPericenter	6.322
	MeanAnomaly     33.254
	}

	RotationPeriod  10   # Guess

	Albedo 0.06
}

"Hati:Saturn XLIII:2004 S 14" "Sol/Saturn" # MPEC 2006-C74
{
	Class "minormoon"
	Texture	 	"asteroid.jpg"
	Mesh		"asteroid.cms"
	Radius		3

	EllipticalOrbit
	{
	Epoch		2453800.5	# 2006 Mar 6
	Period		1033.05
	SemiMajorAxis	19709340
	Eccentricity	0.3080404
	Inclination	169.323
	AscendingNode	160.912
	ArgOfPericenter	 30.574
	MeanAnomaly     224.303
	}

	RotationPeriod  10   # Guess

	Albedo 0.06
}

"Bergelmir:Saturn XXXVIII:2004 S 15" "Sol/Saturn" # MPEC 2006-C55
{
	Class "minormoon"
	Texture	 	"asteroid.jpg"
	Mesh		"asteroid.cms"
	Radius		3

	EllipticalOrbit
	{
	Epoch		2453800.5	# 2006 Mar 6
	Period		985.95
	SemiMajorAxis	19105640
	Eccentricity	0.1297284
	Inclination	155.983
	AscendingNode	 30.246
	ArgOfPericenter	146.038
	MeanAnomaly      34.682
	}

	RotationPeriod  10   # Guess

	Albedo 0.06
}

"Fenrir:Saturn XLI:2004 S 16" "Sol/Saturn" # MPEC 2006-C72
{
	Class "minormoon"
	Texture	 	"asteroid.jpg"
	Mesh		"asteroid.cms"
	Radius		2

	EllipticalOrbit
	{
	Epoch		2453800.5	# 2006 Mar 6
	Period		1212.53
	SemiMajorAxis	21930640
	Eccentricity	0.1049966
	Inclination	163.768
	AscendingNode	 47.473
	ArgOfPericenter	124.324
	MeanAnomaly      66.315
	}

	RotationPeriod  10   # Guess

	Albedo 0.06
}

"2004 S 17" "Sol/Saturn"
{
	Class "minormoon"
	Texture	 	"asteroid.jpg"
	Mesh		"asteroid.cms"
	Radius		2

	EllipticalOrbit
	{
	Epoch		2453400.5	# 2005 Jan 30
	Period		985.45
	SemiMajorAxis	19099175
	Eccentricity	0.2259100
	Inclination	153.848
	AscendingNode	331.252
	ArgOfPericenter	175.790
	MeanAnomaly     165.425
	}

	RotationPeriod  10   # Guess

	Albedo 0.06
}

"Bestla:Saturn XXXIX:2004 S 18" "Sol/Saturn" # MPEC 2006-C55
{
	Class "minormoon"
	Texture	 	"asteroid.jpg"
	Mesh		"asteroid.cms"
	Radius		3.5

	EllipticalOrbit
	{
	Epoch		2453800.5	# 2006 Mar 6
	Period		1097.35
	SemiMajorAxis	20518960
	Eccentricity	0.7453905
	Inclination	153.357
	AscendingNode	115.433
	ArgOfPericenter	 82.190
	MeanAnomaly     288.253
	}

	RotationPeriod  10   # Guess

	Albedo 0.06
}

